{"type": "FeatureCollection", "features": [{"type": "Feature", "id": 76062, "geometry": {"type": "Point", "coordinates": [-67.71102948976262, 45.7325293668331]}, "properties": {"OBJECTID": 76062, "FIRE_NAME": "Spednic", "DEGREES_LAT": 45.73252, "DEGREES_LONG": 67.71103, "FIRE_STAT_ID": 1, "FIRE_STAT_DESC_E": "Out of Control", "FIRE_STAT_DESC_F": "Hors contrôle", "FIRE_SIZE": 2, "TIME_DETECTED": 1790186880000, "FIRE_STAT_DATE": 1790193420000, "FIRE_OF_NOTE_INDCTR": 0, "FIRE_NOTE_ENG": "No", "FIRE_NOTE_FR": "Non", "PERCENT_CONTAINED": 1, "FIRE_NUMBER_SHORT": "357"}}, {"type": "Feature", "id": 76042, "geometry": {"type": "Point", "coordinates": [-66.18267895085329, 45.47193935895495]}, "properties": {"OBJECTID": 76042, "FIRE_NAME": "Britian Road", "DEGREES_LAT": 45.47193, "DEGREES_LONG": 66.18267999999999, "FIRE_STAT_ID": 4, "FIRE_STAT_DESC_E": "Being Patrolled", "FIRE_STAT_DESC_F": "Patrouillé ", "FIRE_SIZE": 0.10000000149011612, "TIME_DETECTED": 1790186400000, "FIRE_STAT_DATE": 1790192700000, "FIRE_OF_NOTE_INDCTR": 0, "FIRE_NOTE_ENG": "No", "FIRE_NOTE_FR": "Non", "PERCENT_CONTAINED": 100, "FIRE_NUMBER_SHORT": "356"}}], "crs": {"type": "name", "properties": {"name": "EPSG:4326"}}, "archived_at": "2026-09-24 06:26:22 ADT"}
