{"type": "FeatureCollection", "features": [{"type": "Feature", "id": "hotspots_last24hrs.32325687", "geometry": {"type": "Point", "coordinates": [-64.72779083, 45.05474091]}, "geometry_name": "geometry", "properties": {"lat": 45.05474, "lon": -64.72779, "rep_date": "2026-09-24T17:00:00Z", "source": "NASA_w", "sensor": "VIIRS-I", "satellite": "NOAA-21", "agency": "NS", "temp": 18.38, "rh": 51, "ws": 4.7, "wd": 25, "pcp": 0, "ffmc": 82.606, "dmc": 6.945, "dc": 103.166, "isi": 1.946, "bui": 11.89, "fwi": 1.93, "fuel": "M2_50", "ros": 0.345, "sfc": 0.655414, "tfc": 0.655414, "bfc": 0.56496525, "hfi": 68, "cfb": 0, "age": 10, "pcuring": 26, "greenup": 1, "elev": 31, "ecozone": "7", "sfl": 1.09, "cfl": 0.1049134, "frp": 10.37, "estarea": null, "pconif": 50}}, {"type": "Feature", "id": "hotspots_last24hrs.32326315", "geometry": {"type": "Point", "coordinates": [-67.86412811, 44.93463898]}, "geometry_name": "geometry", "properties": {"lat": 44.93464, "lon": -67.86413, "rep_date": "2026-09-24T17:00:00Z", "source": "NASA_w", "sensor": "VIIRS-I", "satellite": "NOAA-21", "agency": "ME", "temp": 19.9, "rh": 48, "ws": 4.3, "wd": 257, "pcp": 0, "ffmc": 87.7, "dmc": 20.1, "dc": 303.4, "isi": 3.8, "bui": 34.4, "fwi": 8.6, "fuel": "C5", "ros": 0.076026335, "sfc": 2.9832568, "tfc": 2.9832568, "bfc": 2.7824903, "hfi": 68, "cfb": 0, "age": 10, "pcuring": 22, "greenup": 1, "elev": 76, "ecozone": "8", "sfl": 5.734232, "cfl": 1.0145462, "frp": 24.06, "estarea": null, "pconif": 100}}, {"type": "Feature", "id": "hotspots_last24hrs.32326380", "geometry": {"type": "Point", "coordinates": [-67.86319733, 44.93392944]}, "geometry_name": "geometry", "properties": {"lat": 44.93393, "lon": -67.8632, "rep_date": "2026-09-24T17:56:00Z", "source": "NASA_w", "sensor": "VIIRS-I", "satellite": "NOAA-20", "agency": "ME", "temp": 19.9, "rh": 48, "ws": 4.3, "wd": 257, "pcp": 0, "ffmc": 87.7, "dmc": 20.1, "dc": 303.4, "isi": 3.8, "bui": 34.4, "fwi": 8.6, "fuel": "C5", "ros": 0.076026335, "sfc": 2.3431022, "tfc": 2.3431022, "bfc": 2.3431022, "hfi": 53, "cfb": 0, "age": 9, "pcuring": 22, "greenup": 1, "elev": 76, "ecozone": "8", "sfl": 3.3873456, "cfl": 0.6949046, "frp": 11.29, "estarea": null, "pconif": 100}}], "totalFeatures": 3, "numberMatched": 3, "numberReturned": 3, "timeStamp": "2026-09-25T09:27:33.392Z", "crs": {"type": "name", "properties": {"name": "urn:ogc:def:crs:EPSG::4326"}}, "archived_at": "2026-09-25 06:27:18 ADT"}
