{"type": "FeatureCollection", "features": [{"type": "Feature", "id": "hotspots_last24hrs.32332389", "geometry": {"type": "Point", "coordinates": [-67.8633728, 44.93371964]}, "geometry_name": "geometry", "properties": {"lat": 44.93372, "lon": -67.86337, "rep_date": "2026-09-25T16:41:00Z", "source": "NASA_w", "sensor": "VIIRS-I", "satellite": "NOAA-21", "agency": "ME", "temp": 23.8, "rh": 38, "ws": 6.2, "wd": 106, "pcp": 0, "ffmc": 89.7, "dmc": 22.7, "dc": 309.4, "isi": 5.6, "bui": 38.4, "fwi": 12.6, "fuel": "C5", "ros": 0.29204324, "sfc": 2.4766433, "tfc": 2.4766433, "bfc": 2.4766433, "hfi": 217, "cfb": 0, "age": 10, "pcuring": 22, "greenup": 1, "elev": 76, "ecozone": "8", "sfl": 3.3873456, "cfl": 0.6949046, "frp": 27.9, "estarea": null, "pconif": 100}}], "totalFeatures": 1, "numberMatched": 1, "numberReturned": 1, "timeStamp": "2026-09-26T09:23:22.767Z", "crs": {"type": "name", "properties": {"name": "urn:ogc:def:crs:EPSG::4326"}}, "archived_at": "2026-09-26 06:23:11 ADT"}
