{"type": "FeatureCollection", "features": [{"type": "Feature", "id": "hotspots_last24hrs.31712664", "geometry": {"type": "Point", "coordinates": [-67.70153809, 48.79011154]}, "geometry_name": "geometry", "properties": {"lat": 48.79011, "lon": -67.70154, "rep_date": "2026-08-12T06:35:00Z", "source": "NASA_w", "sensor": "VIIRS-I", "satellite": "NOAA-20", "agency": "QC", "temp": 18.62, "rh": 74, "ws": 19.88, "wd": 71, "pcp": 0.475, "ffmc": 59.936, "dmc": 3.669, "dc": 142.848, "isi": 1.11, "bui": 6.89, "fwi": 0.55, "fuel": "non_fuel", "ros": 0, "sfc": 0, "tfc": 0, "bfc": 0, "hfi": 0, "cfb": 0, "age": 3, "pcuring": 39, "greenup": 1, "elev": 0, "ecozone": null, "sfl": 0, "cfl": 0, "frp": 0.49, "estarea": null, "pconif": 0}}, {"type": "Feature", "id": "hotspots_last24hrs.31712665", "geometry": {"type": "Point", "coordinates": [-67.70263672, 48.78681946]}, "geometry_name": "geometry", "properties": {"lat": 48.78682, "lon": -67.70264, "rep_date": "2026-08-12T06:35:00Z", "source": "NASA_w", "sensor": "VIIRS-I", "satellite": "NOAA-20", "agency": "QC", "temp": 18.62, "rh": 74, "ws": 19.88, "wd": 71, "pcp": 0.475, "ffmc": 59.936, "dmc": 3.669, "dc": 142.848, "isi": 1.11, "bui": 6.89, "fwi": 0.55, "fuel": "non_fuel", "ros": 0, "sfc": 0, "tfc": 0, "bfc": 0, "hfi": 0, "cfb": 0, "age": 3, "pcuring": 39, "greenup": 1, "elev": 0, "ecozone": null, "sfl": 0, "cfl": 0.15351196, "frp": 0.68, "estarea": null, "pconif": 0}}], "totalFeatures": 2, "numberMatched": 2, "numberReturned": 2, "timeStamp": "2026-08-12T09:36:31.386Z", "crs": {"type": "name", "properties": {"name": "urn:ogc:def:crs:EPSG::4326"}}, "archived_at": "2026-08-12 06:36:16 ADT"}
