{"type": "FeatureCollection", "features": [{"type": "Feature", "id": "hotspots_last24hrs.32203766", "geometry": {"type": "Point", "coordinates": [-67.86643219, 44.93310928]}, "geometry_name": "geometry", "properties": {"lat": 44.93311, "lon": -67.86643, "rep_date": "2026-09-02T17:13:00Z", "source": "NASA_w", "sensor": "VIIRS-I", "satellite": "NOAA-21", "agency": "ME", "temp": 29.08547, "rh": 46, "ws": 10.734162, "wd": 0, "pcp": 0.4818163, "ffmc": 88.625595, "dmc": 43.005913, "dc": 331.00482, "isi": 7.531111, "bui": 62.11818, "fwi": 19.164333, "fuel": "C6", "ros": 2.7606447, "sfc": 2.982759, "tfc": 2.982759, "bfc": 2.982759, "hfi": 2470, "cfb": 0, "age": 7, "pcuring": 22, "greenup": 1, "elev": 76, "ecozone": "8", "sfl": 3.3873456, "cfl": 0.41557106, "frp": 13.77, "estarea": null, "pconif": 100}}, {"type": "Feature", "id": "hotspots_last24hrs.32203991", "geometry": {"type": "Point", "coordinates": [-63.61457062, 46.51457977]}, "geometry_name": "geometry", "properties": {"lat": 46.51458, "lon": -63.61457, "rep_date": "2026-09-02T17:13:00Z", "source": "NASA_w", "sensor": "VIIRS-I", "satellite": "NOAA-21", "agency": "PE", "temp": 19.22, "rh": 66, "ws": 15.9, "wd": 46, "pcp": 0.055, "ffmc": 83.451, "dmc": 7.709, "dc": 130.966, "isi": 3.814, "bui": 13.44, "fwi": 4.88, "fuel": "O1b", "ros": 0.056, "sfc": 1.5272243, "tfc": 1.5272243, "bfc": 1.5272243, "hfi": 26, "cfb": 0, "age": 7, "pcuring": 21, "greenup": 1, "elev": 46, "ecozone": "7", "sfl": 9.09, "cfl": 0.27321807, "frp": 2.22, "estarea": null, "pconif": 0}}], "totalFeatures": 2, "numberMatched": 2, "numberReturned": 2, "timeStamp": "2026-09-03T09:26:47.446Z", "crs": {"type": "name", "properties": {"name": "urn:ogc:def:crs:EPSG::4326"}}, "archived_at": "2026-09-03 06:26:34 ADT"}
