{"type": "FeatureCollection", "features": [{"type": "Feature", "id": "hotspots_last24hrs.32379718", "geometry": {"type": "Point", "coordinates": [-66.7244339, 48.38225937]}, "geometry_name": "geometry", "properties": {"lat": 48.38226, "lon": -66.724434, "rep_date": "2026-10-03T02:03:36Z", "source": "Eumetsat", "sensor": "SLSTR", "satellite": "S3A", "agency": "QC", "temp": 8.59, "rh": 61, "ws": 17.34, "wd": 107, "pcp": 0.082, "ffmc": 81.901, "dmc": 15.635, "dc": 211.849, "isi": 3.375, "bui": 26.4, "fwi": 6.53, "fuel": "M2_75", "ros": 1.971, "sfc": 2.8979108, "tfc": 2.8979108, "bfc": 1.6363707, "hfi": 1714, "cfb": 0, "age": 10, "pcuring": 49, "greenup": 1, "elev": 306, "ecozone": "7", "sfl": 13.09, "cfl": 0.7969054, "frp": 8.385609, "estarea": null, "pconif": 75}}], "totalFeatures": 1, "numberMatched": 1, "numberReturned": 1, "timeStamp": "2026-10-03T14:19:02.823Z", "crs": {"type": "name", "properties": {"name": "urn:ogc:def:crs:EPSG::4326"}}, "archived_at": "2026-10-03 11:18:45 ADT"}
