{"type": "FeatureCollection", "features": [{"type": "Feature", "id": "hotspots_last24hrs.30896490", "geometry": {"type": "Point", "coordinates": [-68.24626923, 46.66090012]}, "geometry_name": "geometry", "properties": {"lat": 46.6609, "lon": -68.24627, "rep_date": "2026-08-06T06:48:00Z", "source": "NASA_w", "sensor": "VIIRS-I", "satellite": "NOAA-20", "agency": "ME", "temp": 29, "rh": 52, "ws": 11.1, "wd": 271, "pcp": 0, "ffmc": 87.1, "dmc": 23.3, "dc": 302.6, "isi": 5, "bui": 39.1, "fwi": 11.5, "fuel": "C5", "ros": 0.2017509, "sfc": 3.8420267, "tfc": 3.8420267, "bfc": 2.7716534, "hfi": 233, "cfb": 0, "age": 2, "pcuring": 14, "greenup": 1, "elev": 217, "ecozone": "8", "sfl": 9.874011, "cfl": 1.2215991, "frp": 0.34, "estarea": null, "pconif": 100}}], "totalFeatures": 1, "numberMatched": 1, "numberReturned": 1, "timeStamp": "2026-08-06T10:06:06.290Z", "crs": {"type": "name", "properties": {"name": "urn:ogc:def:crs:EPSG::4326"}}, "archived_at": "2026-08-06 07:05:50 ADT"}
