{"type": "FeatureCollection", "features": [{"type": "Feature", "id": "hotspots_last24hrs.32172665", "geometry": {"type": "Point", "coordinates": [-64.93834686, 46.16233063]}, "geometry_name": "geometry", "properties": {"lat": 46.16233, "lon": -64.93835, "rep_date": "2026-08-30T06:44:00Z", "source": "NASA_w", "sensor": "VIIRS-I", "satellite": "NOAA-21", "agency": "NB", "temp": 21.91, "rh": 54, "ws": 16.75, "wd": 74, "pcp": 0.008, "ffmc": 80.406, "dmc": 7.661, "dc": 131.467, "isi": 2.761, "bui": 13.37, "fwi": 3.41, "fuel": "M2_50", "ros": 0.638, "sfc": 0.7024151, "tfc": 0.7024151, "bfc": 0.808399, "hfi": 134, "cfb": 0, "age": 2, "pcuring": 15, "greenup": 1, "elev": 152, "ecozone": "7", "sfl": 1.09, "cfl": 0, "frp": 1.07, "estarea": null, "pconif": 50}}], "totalFeatures": 1, "numberMatched": 1, "numberReturned": 1, "timeStamp": "2026-08-30T09:21:41.728Z", "crs": {"type": "name", "properties": {"name": "urn:ogc:def:crs:EPSG::4326"}}, "archived_at": "2026-08-30 06:21:29 ADT"}
