{"type": "FeatureCollection", "features": [{"type": "Feature", "id": "hotspots_last24hrs.32292575", "geometry": {"type": "Point", "coordinates": [-65.46793365, 45.82989883]}, "geometry_name": "geometry", "properties": {"lat": 45.8299, "lon": -65.46793, "rep_date": "2026-09-18T17:13:00Z", "source": "NASA_w", "sensor": "VIIRS-I", "satellite": "NOAA-21", "agency": "NB", "temp": 19.71, "rh": 76, "ws": 12.78, "wd": 83, "pcp": 2.01, "ffmc": 72.069, "dmc": 9.007, "dc": 143.477, "isi": 1.278, "bui": 15.57, "fwi": 0.99, "fuel": "M2_50", "ros": 0.224, "sfc": 1.8002961, "tfc": 1.8002961, "bfc": 0.9198963, "hfi": 121, "cfb": 0, "age": 10, "pcuring": 32, "greenup": 1, "elev": 142, "ecozone": "7", "sfl": 13.744133, "cfl": 0.49732223, "frp": 3.86, "estarea": null, "pconif": 50}}], "totalFeatures": 1, "numberMatched": 1, "numberReturned": 1, "timeStamp": "2026-09-19T09:22:52.416Z", "crs": {"type": "name", "properties": {"name": "urn:ogc:def:crs:EPSG::4326"}}, "archived_at": "2026-09-19 06:22:37 ADT"}
