{"type": "FeatureCollection", "features": [{"type": "Feature", "id": "hotspots_last24hrs.32163781", "geometry": {"type": "Point", "coordinates": [-65.92816162, 48.68997955]}, "geometry_name": "geometry", "properties": {"lat": 48.68998, "lon": -65.92816, "rep_date": "2026-08-28T19:04:00Z", "source": "NASA_z", "sensor": "MODIS", "satellite": "Aqua", "agency": "QC", "temp": 17.34, "rh": 94, "ws": 9.97, "wd": 8, "pcp": 1.193, "ffmc": 69.973, "dmc": 10.186, "dc": 204.441, "isi": 1.033, "bui": 18.12, "fwi": 0.88, "fuel": "M2_75", "ros": 0.313, "sfc": 2.0745933, "tfc": 2.0745933, "bfc": 1.552509, "hfi": 195, "cfb": 0, "age": 8, "pcuring": 24, "greenup": 1, "elev": 590, "ecozone": "7", "sfl": 14.09, "cfl": 0.8691482, "frp": 3.02, "estarea": 14.153409, "pconif": 75}}, {"type": "Feature", "id": "hotspots_last24hrs.32165572", "geometry": {"type": "Point", "coordinates": [-68.01081848, 46.97796249]}, "geometry_name": "geometry", "properties": {"lat": 46.977962, "lon": -68.01082, "rep_date": "2026-08-29T02:10:39Z", "source": "Eumetsat", "sensor": "SLSTR", "satellite": "S3A", "agency": "ME", "temp": null, "rh": null, "ws": null, "wd": null, "pcp": null, "ffmc": null, "dmc": null, "dc": null, "isi": null, "bui": null, "fwi": 0, "fuel": "O1b", "ros": 0, "sfc": 0, "tfc": 0, "bfc": 0, "hfi": 0, "cfb": 0, "age": 7, "pcuring": 14, "greenup": 1, "elev": 168, "ecozone": "8", "sfl": 8.731561, "cfl": 0.65302306, "frp": 1.025275, "estarea": 24.681416, "pconif": 0}}], "totalFeatures": 2, "numberMatched": 2, "numberReturned": 2, "timeStamp": "2026-08-29T09:21:15.003Z", "crs": {"type": "name", "properties": {"name": "urn:ogc:def:crs:EPSG::4326"}}, "archived_at": "2026-08-29 06:20:59 ADT"}
