{"type": "FeatureCollection", "features": [{"type": "Feature", "id": "hotspots_last24hrs.30154923", "geometry": {"type": "Point", "coordinates": [-67.42550659, 45.86280823]}, "geometry_name": "geometry", "properties": {"lat": 45.86281, "lon": -67.42551, "rep_date": "2026-07-28T06:16:00Z", "source": "NASA_w", "sensor": "VIIRS-I", "satellite": "NOAA-20", "agency": "NB", "temp": 27.11, "rh": 40, "ws": 5.98, "wd": 164, "pcp": 0, "ffmc": 90.306, "dmc": 29.623, "dc": 240.933, "isi": 6.055, "bui": 45.32, "fwi": 14.58, "fuel": "C2", "ros": 6.265, "sfc": 4.473988, "tfc": 5.601266, "bfc": 1.9790527, "hfi": 10528, "cfb": 64, "age": 3, "pcuring": 32, "greenup": 1, "elev": 156, "ecozone": "7", "sfl": 11.730213, "cfl": 1.7613714, "frp": 2.57, "estarea": 5.7621956, "pconif": 100}}, {"type": "Feature", "id": "hotspots_last24hrs.30154924", "geometry": {"type": "Point", "coordinates": [-67.42459106, 45.8664093]}, "geometry_name": "geometry", "properties": {"lat": 45.86641, "lon": -67.42459, "rep_date": "2026-07-28T06:16:00Z", "source": "NASA_w", "sensor": "VIIRS-I", "satellite": "NOAA-20", "agency": "NB", "temp": 27.11, "rh": 40, "ws": 5.98, "wd": 164, "pcp": 0, "ffmc": 90.306, "dmc": 29.623, "dc": 240.933, "isi": 6.055, "bui": 45.32, "fwi": 14.58, "fuel": "C2", "ros": 6.265, "sfc": 4.1375833, "tfc": 4.8751216, "bfc": 1.9790527, "hfi": 9163, "cfb": 64, "age": 3, "pcuring": 33, "greenup": 1, "elev": 178, "ecozone": "7", "sfl": 8.628392, "cfl": 1.1524036, "frp": 2.42, "estarea": 5.7621956, "pconif": 100}}, {"type": "Feature", "id": "hotspots_last24hrs.30155287", "geometry": {"type": "Point", "coordinates": [-67.42929077, 45.86310959]}, "geometry_name": "geometry", "properties": {"lat": 45.86311, "lon": -67.42929, "rep_date": "2026-07-28T05:23:00Z", "source": "NASA_w", "sensor": "VIIRS-I", "satellite": "NOAA-21", "agency": "NB", "temp": 27.11, "rh": 40, "ws": 5.98, "wd": 164, "pcp": 0, "ffmc": 90.306, "dmc": 29.623, "dc": 240.933, "isi": 6.055, "bui": 45.32, "fwi": 14.58, "fuel": "C2", "ros": 6.265, "sfc": 4.473988, "tfc": 5.601266, "bfc": 1.9790527, "hfi": 10528, "cfb": 64, "age": 4, "pcuring": 32, "greenup": 1, "elev": 156, "ecozone": "7", "sfl": 11.730213, "cfl": 1.7613714, "frp": 1.91, "estarea": 5.7621956, "pconif": 100}}, {"type": "Feature", "id": "hotspots_last24hrs.30155288", "geometry": {"type": "Point", "coordinates": [-67.42685699, 45.86608887]}, "geometry_name": "geometry", "properties": {"lat": 45.86609, "lon": -67.42686, "rep_date": "2026-07-28T07:02:00Z", "source": "NASA_w", "sensor": "VIIRS-I", "satellite": "NOAA-21", "agency": "NB", "temp": 27.11, "rh": 40, "ws": 5.98, "wd": 164, "pcp": 0, "ffmc": 90.306, "dmc": 29.623, "dc": 240.933, "isi": 6.055, "bui": 45.32, "fwi": 14.58, "fuel": "C2", "ros": 6.265, "sfc": 4.1375833, "tfc": 4.8751216, "bfc": 1.9790527, "hfi": 9163, "cfb": 64, "age": 2, "pcuring": 33, "greenup": 1, "elev": 156, "ecozone": "7", "sfl": 8.628392, "cfl": 1.1524036, "frp": 2.2, "estarea": 5.7621956, "pconif": 100}}, {"type": "Feature", "id": "hotspots_last24hrs.30155289", "geometry": {"type": "Point", "coordinates": [-67.42864227, 45.86212921]}, "geometry_name": "geometry", "properties": {"lat": 45.86213, "lon": -67.42864, "rep_date": "2026-07-28T07:02:00Z", "source": "NASA_w", "sensor": "VIIRS-I", "satellite": "NOAA-21", "agency": "NB", "temp": 27.11, "rh": 40, "ws": 5.98, "wd": 164, "pcp": 0, "ffmc": 90.306, "dmc": 29.623, "dc": 240.933, "isi": 6.055, "bui": 45.32, "fwi": 14.58, "fuel": "C2", "ros": 6.265, "sfc": 4.473988, "tfc": 5.601266, "bfc": 1.9790527, "hfi": 10528, "cfb": 64, "age": 2, "pcuring": 32, "greenup": 1, "elev": 156, "ecozone": "7", "sfl": 11.730213, "cfl": 1.7613714, "frp": 1.35, "estarea": 5.7621956, "pconif": 100}}, {"type": "Feature", "id": "hotspots_last24hrs.30157150", "geometry": {"type": "Point", "coordinates": [-67.4212265, 45.86306]}, "geometry_name": "geometry", "properties": {"lat": 45.86306, "lon": -67.42123, "rep_date": "2026-07-28T07:57:00Z", "source": "NASA_w", "sensor": "VIIRS-I", "satellite": "NOAA-20", "agency": "NB", "temp": 27.11, "rh": 40, "ws": 5.98, "wd": 164, "pcp": 0, "ffmc": 90.306, "dmc": 29.623, "dc": 240.933, "isi": 6.055, "bui": 45.32, "fwi": 14.58, "fuel": "C2", "ros": 6.265, "sfc": 4.468577, "tfc": 5.2514577, "bfc": 1.9790527, "hfi": 9870, "cfb": 64, "age": 1, "pcuring": 33, "greenup": 1, "elev": 156, "ecozone": "7", "sfl": 11.663186, "cfl": 1.2232513, "frp": 1.2, "estarea": 5.7621956, "pconif": 100}}, {"type": "Feature", "id": "hotspots_last24hrs.30157154", "geometry": {"type": "Point", "coordinates": [-67.43055725, 45.86648941]}, "geometry_name": "geometry", "properties": {"lat": 45.86649, "lon": -67.43056, "rep_date": "2026-07-28T07:57:00Z", "source": "NASA_w", "sensor": "VIIRS-I", "satellite": "NOAA-20", "agency": "NB", "temp": 27.11, "rh": 40, "ws": 5.98, "wd": 164, "pcp": 0, "ffmc": 90.306, "dmc": 29.623, "dc": 240.933, "isi": 6.055, "bui": 45.32, "fwi": 14.58, "fuel": "C2", "ros": 6.265, "sfc": 4.427491, "tfc": 5.0637794, "bfc": 1.9790527, "hfi": 9517, "cfb": 64, "age": 1, "pcuring": 33, "greenup": 1, "elev": 157, "ecozone": "7", "sfl": 11.178791, "cfl": 0.99419993, "frp": 1.2, "estarea": 5.7621956, "pconif": 100}}], "totalFeatures": 7, "numberMatched": 7, "numberReturned": 7, "timeStamp": "2026-07-28T10:04:53.983Z", "crs": {"type": "name", "properties": {"name": "urn:ogc:def:crs:EPSG::4326"}}, "archived_at": "2026-07-28 07:04:41 ADT"}
