{"type": "FeatureCollection", "features": [{"type": "Feature", "id": "hotspots_last24hrs.31012853", "geometry": {"type": "Point", "coordinates": [-67.38391113, 45.84215164]}, "geometry_name": "geometry", "properties": {"lat": 45.84215, "lon": -67.38391, "rep_date": "2026-08-06T17:20:00Z", "source": "NASA_w", "sensor": "VIIRS-I", "satellite": "NOAA-21", "agency": "NB", "temp": 29.63, "rh": 44, "ws": 11.38, "wd": 89, "pcp": 0, "ffmc": 89.757, "dmc": 22.755, "dc": 273.885, "isi": 7.347, "bui": 37.68, "fwi": 15.32, "fuel": "M2_50", "ros": 4.361, "sfc": 3.855105, "tfc": 3.855105, "bfc": 2.3918862, "hfi": 5044, "cfb": 0, "age": 13, "pcuring": 24, "greenup": 1, "elev": 155, "ecozone": "7", "sfl": 11.611921, "cfl": 2.04386, "frp": 4.44, "estarea": 5.3693185, "pconif": 50}}, {"type": "Feature", "id": "hotspots_last24hrs.31012856", "geometry": {"type": "Point", "coordinates": [-67.38394928, 45.84321976]}, "geometry_name": "geometry", "properties": {"lat": 45.84322, "lon": -67.38395, "rep_date": "2026-08-06T18:13:00Z", "source": "NASA_w", "sensor": "VIIRS-I", "satellite": "NOAA-20", "agency": "NB", "temp": 29.63, "rh": 44, "ws": 11.38, "wd": 89, "pcp": 0, "ffmc": 89.757, "dmc": 22.755, "dc": 273.885, "isi": 7.347, "bui": 37.68, "fwi": 15.32, "fuel": "M2_50", "ros": 4.361, "sfc": 3.7979155, "tfc": 3.7979155, "bfc": 2.3918862, "hfi": 4969, "cfb": 0, "age": 12, "pcuring": 24, "greenup": 1, "elev": 155, "ecozone": "7", "sfl": 10.723307, "cfl": 1.7786855, "frp": 3.3, "estarea": 5.3693185, "pconif": 50}}, {"type": "Feature", "id": "hotspots_last24hrs.31012857", "geometry": {"type": "Point", "coordinates": [-67.38260651, 45.84033966]}, "geometry_name": "geometry", "properties": {"lat": 45.84034, "lon": -67.38261, "rep_date": "2026-08-06T18:13:00Z", "source": "NASA_w", "sensor": "VIIRS-I", "satellite": "NOAA-20", "agency": "NB", "temp": 29.63, "rh": 44, "ws": 11.38, "wd": 89, "pcp": 0, "ffmc": 89.757, "dmc": 22.755, "dc": 273.885, "isi": 7.347, "bui": 37.68, "fwi": 15.32, "fuel": "M2_50", "ros": 4.361, "sfc": 3.855105, "tfc": 3.855105, "bfc": 2.3918862, "hfi": 5044, "cfb": 0, "age": 12, "pcuring": 24, "greenup": 1, "elev": 155, "ecozone": "7", "sfl": 11.611921, "cfl": 2.04386, "frp": 3.45, "estarea": 5.3693185, "pconif": 50}}, {"type": "Feature", "id": "hotspots_last24hrs.31012858", "geometry": {"type": "Point", "coordinates": [-67.38746643, 45.84014893]}, "geometry_name": "geometry", "properties": {"lat": 45.84015, "lon": -67.38747, "rep_date": "2026-08-06T18:13:00Z", "source": "NASA_w", "sensor": "VIIRS-I", "satellite": "NOAA-20", "agency": "NB", "temp": 29.63, "rh": 44, "ws": 11.38, "wd": 89, "pcp": 0, "ffmc": 89.757, "dmc": 22.755, "dc": 273.885, "isi": 7.347, "bui": 37.68, "fwi": 15.32, "fuel": "M2_50", "ros": 4.361, "sfc": 3.812496, "tfc": 3.812496, "bfc": 2.3918862, "hfi": 4988, "cfb": 0, "age": 12, "pcuring": 26, "greenup": 1, "elev": 155, "ecozone": "7", "sfl": 10.935778, "cfl": 1.6378158, "frp": 3.45, "estarea": 5.3693185, "pconif": 50}}], "totalFeatures": 4, "numberMatched": 4, "numberReturned": 4, "timeStamp": "2026-08-07T09:34:00.232Z", "crs": {"type": "name", "properties": {"name": "urn:ogc:def:crs:EPSG::4326"}}, "archived_at": "2026-08-07 06:33:44 ADT"}
