{"type": "FeatureCollection", "features": [{"type": "Feature", "id": "hotspots_last24hrs.32198297", "geometry": {"type": "Point", "coordinates": [-67.86078644, 44.93198013]}, "geometry_name": "geometry", "properties": {"lat": 44.93198, "lon": -67.86079, "rep_date": "2026-09-01T18:28:00Z", "source": "NASA_w", "sensor": "VIIRS-I", "satellite": "NOAA-20", "agency": "ME", "temp": null, "rh": null, "ws": null, "wd": null, "pcp": null, "ffmc": null, "dmc": null, "dc": null, "isi": null, "bui": null, "fwi": 0, "fuel": "C5", "ros": 0, "sfc": 0, "tfc": 0, "bfc": 0, "hfi": 0, "cfb": 0, "age": 9, "pcuring": 22, "greenup": 1, "elev": 76, "ecozone": "8", "sfl": 4.451171, "cfl": 0.6949046, "frp": 6.61, "estarea": null, "pconif": 100}}], "totalFeatures": 1, "numberMatched": 1, "numberReturned": 1, "timeStamp": "2026-09-02T09:26:42.079Z", "crs": {"type": "name", "properties": {"name": "urn:ogc:def:crs:EPSG::4326"}}, "archived_at": "2026-09-02 06:26:27 ADT"}
