{"type": "FeatureCollection", "features": [{"type": "Feature", "id": "hotspots_last24hrs.32268122", "geometry": {"type": "Point", "coordinates": [-68.4076004, 47.29045105]}, "geometry_name": "geometry", "properties": {"lat": 47.29045, "lon": -68.4076, "rep_date": "2026-09-16T06:25:00Z", "source": "NASA_w", "sensor": "VIIRS-I", "satellite": "NOAA-21", "agency": "NB", "temp": null, "rh": null, "ws": null, "wd": null, "pcp": null, "ffmc": null, "dmc": null, "dc": null, "isi": null, "bui": null, "fwi": 0, "fuel": "D1", "ros": 0, "sfc": 0, "tfc": 0, "bfc": 0, "hfi": 0, "cfb": null, "age": 3, "pcuring": 36, "greenup": 1, "elev": 199, "ecozone": null, "sfl": 9.803338, "cfl": 0.59465045, "frp": 0.06, "estarea": null, "pconif": 0}}], "totalFeatures": 1, "numberMatched": 1, "numberReturned": 1, "timeStamp": "2026-09-16T09:25:47.419Z", "crs": {"type": "name", "properties": {"name": "urn:ogc:def:crs:EPSG::4326"}}, "archived_at": "2026-09-16 06:25:32 ADT"}
