{"type": "FeatureCollection", "features": [{"type": "Feature", "id": "hotspots_last24hrs.30185355", "geometry": {"type": "Point", "coordinates": [-62.58927155, 46.38677979]}, "geometry_name": "geometry", "properties": {"lat": 46.38678, "lon": -62.58927, "rep_date": "2026-07-28T23:52:00Z", "source": "NASA_z", "sensor": "MODIS", "satellite": "Terra", "agency": "PE", "temp": 21.31, "rh": 82, "ws": 12.59, "wd": 155, "pcp": 0.009, "ffmc": 83.6, "dmc": 15.883, "dc": 245.7, "isi": 3.291, "bui": 27.35, "fwi": 6.52, "fuel": "M2_75", "ros": 1.784, "sfc": 0.95853233, "tfc": 0.95853233, "bfc": 2.037199, "hfi": 513, "cfb": 0, "age": 6, "pcuring": 21, "greenup": 1, "elev": 36, "ecozone": "7", "sfl": 1.09, "cfl": 0.21818732, "frp": 11.19, "estarea": 5.3693185, "pconif": 75}}, {"type": "Feature", "id": "hotspots_last24hrs.30185356", "geometry": {"type": "Point", "coordinates": [-62.61130905, 46.38217926]}, "geometry_name": "geometry", "properties": {"lat": 46.38218, "lon": -62.61131, "rep_date": "2026-07-28T23:52:00Z", "source": "NASA_z", "sensor": "MODIS", "satellite": "Terra", "agency": "PE", "temp": 21.42, "rh": 82, "ws": 12.64, "wd": 155, "pcp": 0.008, "ffmc": 83.718, "dmc": 16.236, "dc": 244.164, "isi": 3.352, "bui": 27.84, "fwi": 6.7, "fuel": "M2_50", "ros": 1.287, "sfc": 2.972966, "tfc": 2.972966, "bfc": 2.018404, "hfi": 1148, "cfb": 0, "age": 6, "pcuring": 21, "greenup": 1, "elev": 18, "ecozone": "7", "sfl": 11.046034, "cfl": 0.56953937, "frp": 12.43, "estarea": 5.3693185, "pconif": 50}}, {"type": "Feature", "id": "hotspots_last24hrs.30185583", "geometry": {"type": "Point", "coordinates": [-64.89511108, 46.69440842]}, "geometry_name": "geometry", "properties": {"lat": 46.69441, "lon": -64.89511, "rep_date": "2026-07-29T05:57:00Z", "source": "NASA_w", "sensor": "VIIRS-I", "satellite": "NOAA-20", "agency": "NB", "temp": 25.18, "rh": 58, "ws": 7.64, "wd": 109, "pcp": 0.185, "ffmc": 88.519, "dmc": 34.518, "dc": 221.11, "isi": 5.094, "bui": 49.66, "fwi": 13.41, "fuel": "M2_50", "ros": 2.776, "sfc": 5.0377536, "tfc": 5.0377536, "bfc": 1.7431945, "hfi": 4195, "cfb": 0, "age": 3, "pcuring": 29, "greenup": 1, "elev": 4, "ecozone": "7", "sfl": 14.99361, "cfl": 0.5571625, "frp": 0.6, "estarea": null, "pconif": 50}}, {"type": "Feature", "id": "hotspots_last24hrs.30186897", "geometry": {"type": "Point", "coordinates": [-62.60261917, 46.38871002]}, "geometry_name": "geometry", "properties": {"lat": 46.38871, "lon": -62.60262, "rep_date": "2026-07-29T05:57:00Z", "source": "NASA_w", "sensor": "VIIRS-I", "satellite": "NOAA-20", "agency": "PE", "temp": 23.19, "rh": 66, "ws": 6.85, "wd": 75, "pcp": 0, "ffmc": 84.713, "dmc": 18.167, "dc": 252.042, "isi": 2.861, "bui": 30.79, "fwi": 6.15, "fuel": "M2_50", "ros": 1.063, "sfc": 3.1466203, "tfc": 3.1466203, "bfc": 2.1153958, "hfi": 1003, "cfb": 0, "age": 3, "pcuring": 21, "greenup": 1, "elev": 33, "ecozone": "7", "sfl": 9.399884, "cfl": 0.52927184, "frp": 0.66, "estarea": 5.7621956, "pconif": 50}}, {"type": "Feature", "id": "hotspots_last24hrs.30187154", "geometry": {"type": "Point", "coordinates": [-62.58463287, 46.41146469]}, "geometry_name": "geometry", "properties": {"lat": 46.411465, "lon": -62.584633, "rep_date": "2026-07-29T02:14:42Z", "source": "Eumetsat", "sensor": "SLSTR", "satellite": "S3A", "agency": "PE", "temp": 23.27, "rh": 66, "ws": 6.83, "wd": 76, "pcp": 0, "ffmc": 84.716, "dmc": 18.712, "dc": 253.609, "isi": 2.86, "bui": 31.6, "fwi": 6.25, "fuel": "farm", "ros": 0.07, "sfc": 3.3097875, "tfc": 3.3097875, "bfc": 3.3097875, "hfi": 70, "cfb": 0, "age": 7, "pcuring": 17, "greenup": 1, "elev": 34, "ecozone": "7", "sfl": 11.09, "cfl": 0.12930866, "frp": 3.73295, "estarea": 0.6118248, "pconif": 0}}, {"type": "Feature", "id": "hotspots_last24hrs.30187155", "geometry": {"type": "Point", "coordinates": [-62.59524918, 46.39479446]}, "geometry_name": "geometry", "properties": {"lat": 46.394794, "lon": -62.59525, "rep_date": "2026-07-29T01:35:38Z", "source": "Eumetsat", "sensor": "SLSTR", "satellite": "S3B", "agency": "PE", "temp": 22.98, "rh": 67, "ws": 6.87, "wd": 75, "pcp": 0, "ffmc": 84.52, "dmc": 17.815, "dc": 251.464, "isi": 2.79, "bui": 30.27, "fwi": 5.94, "fuel": "farm", "ros": 0, "sfc": 2.783415, "tfc": 2.783415, "bfc": 2.783415, "hfi": 0, "cfb": 0, "age": 8, "pcuring": 25, "greenup": 1, "elev": 38, "ecozone": "7", "sfl": 6.09, "cfl": 0.12048231, "frp": 2.241487, "estarea": 0.6118248, "pconif": 0}}, {"type": "Feature", "id": "hotspots_last24hrs.30187156", "geometry": {"type": "Point", "coordinates": [-62.60797119, 46.39253616]}, "geometry_name": "geometry", "properties": {"lat": 46.392536, "lon": -62.60797, "rep_date": "2026-07-29T01:35:38Z", "source": "Eumetsat", "sensor": "SLSTR", "satellite": "S3B", "agency": "PE", "temp": 23.19, "rh": 66, "ws": 6.85, "wd": 75, "pcp": 0, "ffmc": 84.713, "dmc": 18.167, "dc": 252.042, "isi": 2.861, "bui": 30.79, "fwi": 6.15, "fuel": "M2_50", "ros": 1.063, "sfc": 3.1894233, "tfc": 3.1894233, "bfc": 2.1153958, "hfi": 1017, "cfb": 0, "age": 8, "pcuring": 25, "greenup": 1, "elev": 33, "ecozone": "7", "sfl": 10.109508, "cfl": 0.36549923, "frp": 8.843609, "estarea": 2.7470932, "pconif": 50}}], "totalFeatures": 7, "numberMatched": 7, "numberReturned": 7, "timeStamp": "2026-07-29T10:05:40.259Z", "crs": {"type": "name", "properties": {"name": "urn:ogc:def:crs:EPSG::4326"}}, "archived_at": "2026-07-29 07:05:28 ADT"}
