{"type": "FeatureCollection", "features": [{"type": "Feature", "id": "hotspots_last24hrs.29853630", "geometry": {"type": "Point", "coordinates": [-65.47477722, 45.65367889]}, "geometry_name": "geometry", "properties": {"lat": 45.65368, "lon": -65.47478, "rep_date": "2026-07-25T06:18:00Z", "source": "NASA", "sensor": "VIIRS-I", "satellite": "NOAA-21", "agency": "NB", "temp": 25.62, "rh": 47, "ws": 7.23, "wd": 11, "pcp": 0, "ffmc": 87.115, "dmc": 14.48, "dc": 151.043, "isi": 4.083, "bui": 23.36, "fwi": 7.23, "fuel": "D2", "ros": 0, "sfc": 2.5762517, "tfc": 2.5762517, "bfc": 2.5762517, "hfi": 0, "cfb": 0, "age": 3, "pcuring": 27, "greenup": 1, "elev": 175, "ecozone": "7", "sfl": 11.892924, "cfl": 0.58156145, "frp": 1.17, "estarea": null, "pconif": 0}}], "totalFeatures": 1, "numberMatched": 1, "numberReturned": 1, "timeStamp": "2026-07-25T09:49:21.536Z", "crs": {"type": "name", "properties": {"name": "urn:ogc:def:crs:EPSG::4326"}}, "archived_at": "2026-07-25 06:49:08 ADT"}
