{"type": "FeatureCollection", "features": [{"type": "Feature", "id": "hotspots_last24hrs.29970104", "geometry": {"type": "Point", "coordinates": [-64.6293335, 45.13240051]}, "geometry_name": "geometry", "properties": {"lat": 45.1324, "lon": -64.62933, "rep_date": "2026-07-27T06:35:00Z", "source": "NASA_w", "sensor": "VIIRS-I", "satellite": "NOAA-20", "agency": "NS", "temp": 23.54, "rh": 51, "ws": 7.55, "wd": 65, "pcp": 0, "ffmc": 88.995, "dmc": 19.068, "dc": 259.89, "isi": 5.429, "bui": 32.23, "fwi": 11.09, "fuel": "O1b", "ros": 0.337, "sfc": 3.3410246, "tfc": 3.3410246, "bfc": 3.3410246, "hfi": 338, "cfb": 0, "age": 3, "pcuring": 31, "greenup": 1, "elev": 202, "ecozone": "7", "sfl": 10.634066, "cfl": 0.4542561, "frp": 0.92, "estarea": null, "pconif": 0}}], "totalFeatures": 1, "numberMatched": 1, "numberReturned": 1, "timeStamp": "2026-07-27T10:28:59.905Z", "crs": {"type": "name", "properties": {"name": "urn:ogc:def:crs:EPSG::4326"}}, "archived_at": "2026-07-27 07:28:45 ADT"}
