{"type": "FeatureCollection", "features": [{"type": "Feature", "id": "hotspots_last24hrs.32213366", "geometry": {"type": "Point", "coordinates": [-68.48687744, 45.48600006]}, "geometry_name": "geometry", "properties": {"lat": 45.486, "lon": -68.48688, "rep_date": "2026-09-05T01:50:29Z", "source": "Eumetsat", "sensor": "SLSTR", "satellite": "S3B", "agency": "ME", "temp": 21, "rh": 78, "ws": 0, "wd": 0, "pcp": 6.86, "ffmc": 23.9, "dmc": 9.2, "dc": 250.5, "isi": 0, "bui": 16.8, "fwi": 0, "fuel": "M1_50", "ros": 0, "sfc": 1.8095105, "tfc": 1.8095105, "bfc": 1.8095105, "hfi": 0, "cfb": 0, "age": 7, "pcuring": 22, "greenup": 1, "elev": 115, "ecozone": "8", "sfl": 7.278282, "cfl": 0.5424442, "frp": 0.981285, "estarea": 24.681416, "pconif": 50}}], "totalFeatures": 1, "numberMatched": 1, "numberReturned": 1, "timeStamp": "2026-09-05T09:21:37.939Z", "crs": {"type": "name", "properties": {"name": "urn:ogc:def:crs:EPSG::4326"}}, "archived_at": "2026-09-05 06:21:25 ADT"}
