{"type": "FeatureCollection", "features": [{"type": "Feature", "id": "hotspots_last24hrs.32238507", "geometry": {"type": "Point", "coordinates": [-65.72514343, 47.70743179]}, "geometry_name": "geometry", "properties": {"lat": 47.70743, "lon": -65.72514, "rep_date": "2026-09-10T17:20:00Z", "source": "NASA_w", "sensor": "VIIRS-I", "satellite": "NOAA-20", "agency": "NB", "temp": 21.69, "rh": 62, "ws": 24.34, "wd": 83, "pcp": 9.924, "ffmc": 66.244, "dmc": 5.437, "dc": 170.98, "isi": 1.885, "bui": 10.07, "fwi": 1.54, "fuel": "non_fuel", "ros": 0, "sfc": 1.191562, "tfc": 1.191562, "bfc": 0, "hfi": 0, "cfb": 0, "age": 10, "pcuring": 30, "greenup": 1, "elev": 18, "ecozone": "7", "sfl": 13.046766, "cfl": 0.35399592, "frp": 2.97, "estarea": null, "pconif": 0}}], "totalFeatures": 1, "numberMatched": 1, "numberReturned": 1, "timeStamp": "2026-09-11T09:25:28.920Z", "crs": {"type": "name", "properties": {"name": "urn:ogc:def:crs:EPSG::4326"}}, "archived_at": "2026-09-11 06:25:14 ADT"}
