{"type": "FeatureCollection", "features": [{"type": "Feature", "id": "hotspots_last24hrs.32320325", "geometry": {"type": "Point", "coordinates": [-67.70928955, 45.73234177]}, "geometry_name": "geometry", "properties": {"lat": 45.73234, "lon": -67.70929, "rep_date": "2026-09-23T16:37:00Z", "source": "NASA_w", "sensor": "VIIRS-I", "satellite": "NOAA-20", "agency": "NB", "temp": 15.44, "rh": 47, "ws": 11.76, "wd": 12, "pcp": 0.003, "ffmc": 86.88, "dmc": 17.118, "dc": 341.383, "isi": 4.96, "bui": 30.42, "fwi": 9.97, "fuel": "M2_50", "ros": 2.298, "sfc": 3.248963, "tfc": 3.248963, "bfc": 3.248963, "hfi": 2240, "cfb": 0, "age": 11, "pcuring": 47, "greenup": 1, "elev": 150, "ecozone": "7", "sfl": 12.167101, "cfl": 1.2385192, "frp": 2.46, "estarea": null, "pconif": 50}}, {"type": "Feature", "id": "hotspots_last24hrs.32320355", "geometry": {"type": "Point", "coordinates": [-67.70948792, 45.73355103]}, "geometry_name": "geometry", "properties": {"lat": 45.73355, "lon": -67.70949, "rep_date": "2026-09-23T17:20:00Z", "source": "NASA_w", "sensor": "VIIRS-I", "satellite": "NOAA-21", "agency": "NB", "temp": 15.44, "rh": 47, "ws": 11.76, "wd": 12, "pcp": 0.003, "ffmc": 86.88, "dmc": 17.118, "dc": 341.383, "isi": 4.96, "bui": 30.42, "fwi": 9.97, "fuel": "M2_50", "ros": 2.298, "sfc": 3.248963, "tfc": 3.248963, "bfc": 3.248963, "hfi": 2240, "cfb": 0, "age": 10, "pcuring": 47, "greenup": 1, "elev": 151, "ecozone": "7", "sfl": 12.167101, "cfl": 1.3208445, "frp": 7.37, "estarea": null, "pconif": 50}}, {"type": "Feature", "id": "hotspots_last24hrs.32320386", "geometry": {"type": "Point", "coordinates": [-67.70913696, 45.73242187]}, "geometry_name": "geometry", "properties": {"lat": 45.73242, "lon": -67.70914, "rep_date": "2026-09-23T18:15:00Z", "source": "NASA_w", "sensor": "VIIRS-I", "satellite": "NOAA-20", "agency": "NB", "temp": 15.44, "rh": 47, "ws": 11.76, "wd": 12, "pcp": 0.003, "ffmc": 86.88, "dmc": 17.118, "dc": 341.383, "isi": 4.96, "bui": 30.42, "fwi": 9.97, "fuel": "M2_50", "ros": 2.298, "sfc": 3.248963, "tfc": 3.248963, "bfc": 3.248963, "hfi": 2240, "cfb": 0, "age": 9, "pcuring": 47, "greenup": 1, "elev": 150, "ecozone": "7", "sfl": 12.167101, "cfl": 1.2385192, "frp": 4.72, "estarea": null, "pconif": 50}}, {"type": "Feature", "id": "hotspots_last24hrs.32320387", "geometry": {"type": "Point", "coordinates": [-67.70973206, 45.72824097]}, "geometry_name": "geometry", "properties": {"lat": 45.72824, "lon": -67.70973, "rep_date": "2026-09-23T18:15:00Z", "source": "NASA_w", "sensor": "VIIRS-I", "satellite": "NOAA-20", "agency": "NB", "temp": 15.44, "rh": 47, "ws": 11.76, "wd": 12, "pcp": 0.003, "ffmc": 86.88, "dmc": 17.118, "dc": 341.383, "isi": 4.96, "bui": 30.42, "fwi": 9.97, "fuel": "M2_50", "ros": 2.298, "sfc": 3.2186916, "tfc": 3.2186916, "bfc": 3.2186916, "hfi": 2219, "cfb": 0, "age": 9, "pcuring": 46, "greenup": 1, "elev": 150, "ecozone": "7", "sfl": 11.382155, "cfl": 1.3403542, "frp": 1.72, "estarea": null, "pconif": 50}}], "totalFeatures": 4, "numberMatched": 4, "numberReturned": 4, "timeStamp": "2026-09-24T09:26:37.489Z", "crs": {"type": "name", "properties": {"name": "urn:ogc:def:crs:EPSG::4326"}}, "archived_at": "2026-09-24 06:26:22 ADT"}
