{"type": "FeatureCollection", "features": [{"type": "Feature", "id": "hotspots_last24hrs.31654064", "geometry": {"type": "Point", "coordinates": [-67.67314148, 46.55524063]}, "geometry_name": "geometry", "properties": {"lat": 46.55524, "lon": -67.67314, "rep_date": "2026-08-10T17:00:00Z", "source": "NASA_w", "sensor": "VIIRS-I", "satellite": "NOAA-20", "agency": "NB", "temp": 25.25, "rh": 56, "ws": 12.99, "wd": 88, "pcp": 0.202, "ffmc": 82.33, "dmc": 16.122, "dc": 284.393, "isi": 2.857, "bui": 28.24, "fwi": 5.81, "fuel": "D2", "ros": 0, "sfc": 1.0255293, "tfc": 1.0255293, "bfc": 5.149359, "hfi": 0, "cfb": 0, "age": 13, "pcuring": 18, "greenup": 1, "elev": 117, "ecozone": "7", "sfl": 1.1692202, "cfl": 0, "frp": 3, "estarea": null, "pconif": 0}}], "totalFeatures": 1, "numberMatched": 1, "numberReturned": 1, "timeStamp": "2026-08-11T09:33:20.048Z", "crs": {"type": "name", "properties": {"name": "urn:ogc:def:crs:EPSG::4326"}}, "archived_at": "2026-08-11 06:33:07 ADT"}
