{"type": "FeatureCollection", "features": [{"type": "Feature", "id": "hotspots_last24hrs.32246279", "geometry": {"type": "Point", "coordinates": [-67.63162231, 44.55995941]}, "geometry_name": "geometry", "properties": {"lat": 44.55996, "lon": -67.63162, "rep_date": "2026-09-12T06:00:00Z", "source": "NASA_w", "sensor": "VIIRS-I", "satellite": "NOAA-21", "agency": "ME", "temp": 29.08547, "rh": 46, "ws": 10.734162, "wd": 0, "pcp": 0.4818163, "ffmc": 88.625595, "dmc": 43.005913, "dc": 331.00482, "isi": 7.531111, "bui": 62.11818, "fwi": 19.164333, "fuel": "C6", "ros": 2.7606447, "sfc": 4.7526712, "tfc": 4.7526712, "bfc": 3.1646798, "hfi": 3936, "cfb": 0, "age": 3, "pcuring": 22, "greenup": 1, "elev": 14, "ecozone": "8", "sfl": 7.2911577, "cfl": 1.6347268, "frp": 3.92, "estarea": null, "pconif": 100}}], "totalFeatures": 1, "numberMatched": 1, "numberReturned": 1, "timeStamp": "2026-09-12T09:22:27.956Z", "crs": {"type": "name", "properties": {"name": "urn:ogc:def:crs:EPSG::4326"}}, "archived_at": "2026-09-12 06:22:12 ADT"}
