{"type": "FeatureCollection", "features": [{"type": "Feature", "id": "hotspots_last24hrs.32314340", "geometry": {"type": "Point", "coordinates": [-66.36628723, 45.81150818]}, "geometry_name": "geometry", "properties": {"lat": 45.81151, "lon": -66.36629, "rep_date": "2026-09-22T17:39:00Z", "source": "NASA_w", "sensor": "VIIRS-I", "satellite": "NOAA-21", "agency": "NB", "temp": 15.65, "rh": 50, "ws": 12.16, "wd": 21, "pcp": 0.002, "ffmc": 86.1, "dmc": 13.452, "dc": 263.687, "isi": 4.533, "bui": 23.86, "fwi": 8.03, "fuel": "D2", "ros": 0, "sfc": 1.5018218, "tfc": 1.5018218, "bfc": 1.5018218, "hfi": 0, "cfb": 0, "age": 9, "pcuring": 41, "greenup": 1, "elev": 60, "ecozone": "7", "sfl": 2.1878257, "cfl": 0, "frp": 5.29, "estarea": null, "pconif": 0}}], "totalFeatures": 1, "numberMatched": 1, "numberReturned": 1, "timeStamp": "2026-09-23T09:26:43.466Z", "crs": {"type": "name", "properties": {"name": "urn:ogc:def:crs:EPSG::4326"}}, "archived_at": "2026-09-23 06:26:29 ADT"}
