{"type": "FeatureCollection", "features": [{"type": "Feature", "id": "hotspots_last24hrs.32259681", "geometry": {"type": "Point", "coordinates": [-63.82670975, 45.60549927]}, "geometry_name": "geometry", "properties": {"lat": 45.6055, "lon": -63.82671, "rep_date": "2026-09-15T05:59:00Z", "source": "NASA_w", "sensor": "VIIRS-I", "satellite": "NOAA-20", "agency": "NS", "temp": 17.05, "rh": 64, "ws": 9.06, "wd": 14, "pcp": 0.024, "ffmc": 68.064, "dmc": 3.874, "dc": 10.324, "isi": 0.928, "bui": 4, "fwi": 0.36, "fuel": "M2_75", "ros": 0.028, "sfc": 0.47945076, "tfc": 0.47945076, "bfc": 0.195, "hfi": 4, "cfb": 0, "age": 3, "pcuring": 20, "greenup": 1, "elev": 111, "ecozone": "7", "sfl": 7.4195924, "cfl": 0, "frp": 1.23, "estarea": null, "pconif": 75}}, {"type": "Feature", "id": "hotspots_last24hrs.32259690", "geometry": {"type": "Point", "coordinates": [-63.82339096, 45.60200882]}, "geometry_name": "geometry", "properties": {"lat": 45.60201, "lon": -63.82339, "rep_date": "2026-09-15T06:44:00Z", "source": "NASA_w", "sensor": "VIIRS-I", "satellite": "NOAA-21", "agency": "NS", "temp": 17.2, "rh": 63, "ws": 8.91, "wd": 14, "pcp": 0.02, "ffmc": 68.092, "dmc": 4.007, "dc": 10.365, "isi": 0.922, "bui": 4.08, "fwi": 0.36, "fuel": "D2", "ros": 0, "sfc": 0.29495615, "tfc": 0.29495615, "bfc": 0.29495615, "hfi": 0, "cfb": 0, "age": 2, "pcuring": 21, "greenup": 1, "elev": 103, "ecozone": "7", "sfl": 1.09, "cfl": 0, "frp": 0.92, "estarea": null, "pconif": 0}}, {"type": "Feature", "id": "hotspots_last24hrs.32259716", "geometry": {"type": "Point", "coordinates": [-64.89929962, 47.62114716]}, "geometry_name": "geometry", "properties": {"lat": 47.621147, "lon": -64.8993, "rep_date": "2026-09-15T01:30:01Z", "source": "Eumetsat", "sensor": "SLSTR", "satellite": "S3A", "agency": "NB", "temp": 16.43, "rh": 57, "ws": 6.65, "wd": 101, "pcp": 0, "ffmc": 85.666, "dmc": 10.504, "dc": 106.042, "isi": 3.231, "bui": 16.84, "fwi": 4.72, "fuel": "M2_50", "ros": 0.94, "sfc": 1.9296172, "tfc": 1.9296172, "bfc": 0.639, "hfi": 544, "cfb": 0, "age": 8, "pcuring": 30, "greenup": 1, "elev": 14, "ecozone": "7", "sfl": 12.9070635, "cfl": 0.66468745, "frp": 0.783101, "estarea": null, "pconif": 50}}], "totalFeatures": 3, "numberMatched": 3, "numberReturned": 3, "timeStamp": "2026-09-15T09:28:38.216Z", "crs": {"type": "name", "properties": {"name": "urn:ogc:def:crs:EPSG::4326"}}, "archived_at": "2026-09-15 06:28:22 ADT"}
