{"type": "FeatureCollection", "features": [{"type": "Feature", "id": "hotspots_last24hrs.31869547", "geometry": {"type": "Point", "coordinates": [-67.5745163, 44.5728302]}, "geometry_name": "geometry", "properties": {"lat": 44.57283, "lon": -67.57452, "rep_date": "2026-08-19T17:30:00Z", "source": "NASA_w", "sensor": "VIIRS-I", "satellite": "NOAA-20", "agency": "ME", "temp": 26.1, "rh": 62, "ws": 4, "wd": 69, "pcp": 0, "ffmc": 83.8, "dmc": 37.2, "dc": 292, "isi": 2.2, "bui": 56.4, "fwi": 7.1, "fuel": "M1_50", "ros": 0.8605363, "sfc": 5.5306354, "tfc": 5.5306354, "bfc": 2.6293626, "hfi": 1428, "cfb": 0, "age": 7, "pcuring": 14, "greenup": 1, "elev": 25, "ecozone": "8", "sfl": 14.380808, "cfl": 1.5970808, "frp": 2.25, "estarea": null, "pconif": 50}}], "totalFeatures": 1, "numberMatched": 1, "numberReturned": 1, "timeStamp": "2026-08-20T09:21:48.242Z", "crs": {"type": "name", "properties": {"name": "urn:ogc:def:crs:EPSG::4326"}}, "archived_at": "2026-08-20 06:21:35 ADT"}
