{"type": "FeatureCollection", "features": [{"type": "Feature", "id": "hotspots_last24hrs.32216221", "geometry": {"type": "Point", "coordinates": [-66.36109161, 45.12656403]}, "geometry_name": "geometry", "properties": {"lat": 45.126564, "lon": -66.36109, "rep_date": "2026-09-06T02:02:39Z", "source": "Eumetsat", "sensor": "SLSTR", "satellite": "S3A", "agency": "NB", "temp": 13.59, "rh": 67, "ws": 29.81, "wd": 175, "pcp": 0.344, "ffmc": 76.688, "dmc": 6.533, "dc": 194.572, "isi": 3.825, "bui": 12.05, "fwi": 4.58, "fuel": "C2", "ros": 1.064, "sfc": 1.4075873, "tfc": 1.4075873, "bfc": 1.4075873, "hfi": 449, "cfb": 0, "age": 7, "pcuring": 21, "greenup": 1, "elev": 8, "ecozone": "7", "sfl": 11.948704, "cfl": 1.6249528, "frp": 0.794683, "estarea": 2.7470932, "pconif": 100}}], "totalFeatures": 1, "numberMatched": 1, "numberReturned": 1, "timeStamp": "2026-09-06T09:22:03.937Z", "crs": {"type": "name", "properties": {"name": "urn:ogc:def:crs:EPSG::4326"}}, "archived_at": "2026-09-06 06:21:49 ADT"}
