{"type": "FeatureCollection", "features": [{"type": "Feature", "id": "hotspots_last24hrs.32046147", "geometry": {"type": "Point", "coordinates": [-66.79737091, 45.12738037]}, "geometry_name": "geometry", "properties": {"lat": 45.12738, "lon": -66.79737, "rep_date": "2026-08-25T18:49:00Z", "source": "NASA_z", "sensor": "MODIS", "satellite": "Aqua", "agency": "NB", "temp": 22.27, "rh": 74, "ws": 5.95, "wd": 5, "pcp": 0.052, "ffmc": 53.226, "dmc": 9.122, "dc": 242.412, "isi": 0.317, "bui": 16.68, "fwi": 0.26, "fuel": "M2_75", "ros": 0.045, "sfc": 1.8592383, "tfc": 1.8592383, "bfc": 1.9970348, "hfi": 25, "cfb": 0, "age": 8, "pcuring": 13, "greenup": 1, "elev": 54, "ecozone": "7", "sfl": 9.259927, "cfl": 0.9015107, "frp": 9.65, "estarea": 5.3693185, "pconif": 75}}, {"type": "Feature", "id": "hotspots_last24hrs.32049341", "geometry": {"type": "Point", "coordinates": [-65.82106018, 44.45378113]}, "geometry_name": "geometry", "properties": {"lat": 44.45378, "lon": -65.82106, "rep_date": "2026-08-26T05:33:00Z", "source": "NASA_w", "sensor": "VIIRS-I", "satellite": "NOAA-20", "agency": "NS", "temp": 20.82, "rh": 76, "ws": 8.51, "wd": 76, "pcp": 0.119, "ffmc": 80.36, "dmc": 18.282, "dc": 278.589, "isi": 1.814, "bui": 31.41, "fwi": 3.91, "fuel": "D2", "ros": 0, "sfc": 3.3378775, "tfc": 3.3378775, "bfc": 4.7559266, "hfi": 0, "cfb": 0, "age": 4, "pcuring": 14, "greenup": 1, "elev": 82, "ecozone": "7", "sfl": 12.146195, "cfl": 0.5638838, "frp": 0.29, "estarea": null, "pconif": 0}}, {"type": "Feature", "id": "hotspots_last24hrs.32049442", "geometry": {"type": "Point", "coordinates": [-65.81841278, 44.45159912]}, "geometry_name": "geometry", "properties": {"lat": 44.4516, "lon": -65.81841, "rep_date": "2026-08-26T06:20:00Z", "source": "NASA_w", "sensor": "VIIRS-I", "satellite": "NOAA-21", "agency": "NS", "temp": 20.82, "rh": 76, "ws": 8.51, "wd": 76, "pcp": 0.119, "ffmc": 80.36, "dmc": 18.282, "dc": 278.589, "isi": 1.814, "bui": 31.41, "fwi": 3.91, "fuel": "D2", "ros": 0, "sfc": 0.9939593, "tfc": 0.9939593, "bfc": 4.7559266, "hfi": 0, "cfb": 0, "age": 3, "pcuring": 14, "greenup": 1, "elev": 106, "ecozone": "7", "sfl": 1.09, "cfl": 0.55662495, "frp": 3.49, "estarea": null, "pconif": 0}}], "totalFeatures": 3, "numberMatched": 3, "numberReturned": 3, "timeStamp": "2026-08-26T09:25:54.217Z", "crs": {"type": "name", "properties": {"name": "urn:ogc:def:crs:EPSG::4326"}}, "archived_at": "2026-08-26 06:25:40 ADT"}
