{"type": "FeatureCollection", "features": [{"type": "Feature", "id": "hotspots_last24hrs.31163227", "geometry": {"type": "Point", "coordinates": [-66.63400269, 49.03841019]}, "geometry_name": "geometry", "properties": {"lat": 49.03841, "lon": -66.634, "rep_date": "2026-08-07T14:18:00Z", "source": "NASA_z", "sensor": "MODIS", "satellite": "Terra", "agency": "QC", "temp": 20.88, "rh": 80, "ws": 25.45, "wd": 95, "pcp": 0.001, "ffmc": 78.908, "dmc": 3.163, "dc": 92.154, "isi": 3.681, "bui": 5.83, "fwi": 2.85, "fuel": "M2_50", "ros": 0.348, "sfc": 0.70278496, "tfc": 0.70278496, "bfc": 0.4781527, "hfi": 73, "cfb": 0, "age": 16, "pcuring": 16, "greenup": 1, "elev": 254, "ecozone": "7", "sfl": 11.678032, "cfl": 0.78710234, "frp": 7.79, "estarea": 14.153409, "pconif": 50}}], "totalFeatures": 1, "numberMatched": 1, "numberReturned": 1, "timeStamp": "2026-08-08T09:23:32.040Z", "crs": {"type": "name", "properties": {"name": "urn:ogc:def:crs:EPSG::4326"}}, "archived_at": "2026-08-08 06:23:19 ADT"}
