{"type": "FeatureCollection", "features": [{"type": "Feature", "id": "hotspots_last24hrs.32276306", "geometry": {"type": "Point", "coordinates": [-65.69129944, 46.68001175]}, "geometry_name": "geometry", "properties": {"lat": 46.68001, "lon": -65.6913, "rep_date": "2026-09-16T17:52:00Z", "source": "NASA_w", "sensor": "VIIRS-I", "satellite": "NOAA-21", "agency": "NB", "temp": 17.97, "rh": 66, "ws": 10.98, "wd": 37, "pcp": 0, "ffmc": 83.949, "dmc": 9.701, "dc": 185.42, "isi": 3.179, "bui": 17.16, "fwi": 4.7, "fuel": "C2", "ros": 1.303, "sfc": 1.9553949, "tfc": 1.9553949, "bfc": 1.3438476, "hfi": 764, "cfb": 0, "age": 9, "pcuring": 33, "greenup": 1, "elev": 58, "ecozone": "7", "sfl": 12.133966, "cfl": 1.0843122, "frp": 14.41, "estarea": null, "pconif": 100}}, {"type": "Feature", "id": "hotspots_last24hrs.32276307", "geometry": {"type": "Point", "coordinates": [-65.69824982, 46.67958069]}, "geometry_name": "geometry", "properties": {"lat": 46.67958, "lon": -65.69825, "rep_date": "2026-09-16T17:52:00Z", "source": "NASA_w", "sensor": "VIIRS-I", "satellite": "NOAA-21", "agency": "NB", "temp": 17.97, "rh": 66, "ws": 10.98, "wd": 37, "pcp": 0, "ffmc": 83.949, "dmc": 9.701, "dc": 185.42, "isi": 3.179, "bui": 17.16, "fwi": 4.7, "fuel": "C2", "ros": 1.303, "sfc": 1.9648931, "tfc": 1.9648931, "bfc": 1.3438476, "hfi": 768, "cfb": 0, "age": 9, "pcuring": 33, "greenup": 1, "elev": 58, "ecozone": "7", "sfl": 13.077771, "cfl": 0.78550726, "frp": 14.41, "estarea": null, "pconif": 100}}, {"type": "Feature", "id": "hotspots_last24hrs.32276357", "geometry": {"type": "Point", "coordinates": [-65.69177246, 46.68156815]}, "geometry_name": "geometry", "properties": {"lat": 46.68157, "lon": -65.69177, "rep_date": "2026-09-16T17:05:00Z", "source": "NASA_w", "sensor": "VIIRS-I", "satellite": "NOAA-20", "agency": "NB", "temp": 17.97, "rh": 66, "ws": 10.98, "wd": 37, "pcp": 0, "ffmc": 83.949, "dmc": 9.701, "dc": 185.42, "isi": 3.179, "bui": 17.16, "fwi": 4.7, "fuel": "C2", "ros": 1.303, "sfc": 1.965835, "tfc": 1.965835, "bfc": 1.3438476, "hfi": 768, "cfb": 0, "age": 10, "pcuring": 33, "greenup": 1, "elev": 54, "ecozone": "7", "sfl": 13.1854105, "cfl": 1.0116031, "frp": 40.61, "estarea": null, "pconif": 100}}, {"type": "Feature", "id": "hotspots_last24hrs.32278170", "geometry": {"type": "Point", "coordinates": [-67.61249542, 46.39068604]}, "geometry_name": "geometry", "properties": {"lat": 46.390686, "lon": -67.612495, "rep_date": "2026-09-17T01:39:42Z", "source": "Eumetsat", "sensor": "SLSTR", "satellite": "S3B", "agency": "NB", "temp": 17.6, "rh": 63, "ws": 1.23, "wd": 91, "pcp": 0, "ffmc": 83.994, "dmc": 12.812, "dc": 336.159, "isi": 1.956, "bui": 23.39, "fwi": 3.41, "fuel": "farm", "ros": 0.137, "sfc": 0.9114236, "tfc": 0.9114236, "bfc": 0.9114236, "hfi": 37, "cfb": 0, "age": 7, "pcuring": 41, "greenup": 1, "elev": 93, "ecozone": "7", "sfl": 1.09, "cfl": 0, "frp": 0.857247, "estarea": null, "pconif": 0}}, {"type": "Feature", "id": "hotspots_last24hrs.32278171", "geometry": {"type": "Point", "coordinates": [-63.6557579, 45.25069046]}, "geometry_name": "geometry", "properties": {"lat": 45.25069, "lon": -63.655758, "rep_date": "2026-09-17T01:39:03Z", "source": "Eumetsat", "sensor": "SLSTR", "satellite": "S3B", "agency": "NS", "temp": 18.59, "rh": 71, "ws": 3.45, "wd": 116, "pcp": 0, "ffmc": 83.238, "dmc": 6.908, "dc": 42.225, "isi": 1.981, "bui": 9.81, "fwi": 1.65, "fuel": "O1b", "ros": 0.021, "sfc": 0.57956916, "tfc": 0.57956916, "bfc": 0.57956916, "hfi": 4, "cfb": 0, "age": 7, "pcuring": 16, "greenup": 1, "elev": 71, "ecozone": "7", "sfl": 1.09, "cfl": 0.53470016, "frp": 0.848969, "estarea": null, "pconif": 0}}], "totalFeatures": 5, "numberMatched": 5, "numberReturned": 5, "timeStamp": "2026-09-17T09:26:54.382Z", "crs": {"type": "name", "properties": {"name": "urn:ogc:def:crs:EPSG::4326"}}, "archived_at": "2026-09-17 06:26:37 ADT"}
