{"type": "FeatureCollection", "features": [{"type": "Feature", "id": "hotspots_last24hrs.30588196", "geometry": {"type": "Point", "coordinates": [-67.59113312, 46.42945862]}, "geometry_name": "geometry", "properties": {"lat": 46.42946, "lon": -67.59113, "rep_date": "2026-08-04T17:11:00Z", "source": "NASA_w", "sensor": "VIIRS-I", "satellite": "NOAA-20", "agency": "NB", "temp": 25.81, "rh": 42, "ws": 28.96, "wd": 97, "pcp": 10.582, "ffmc": 77.415, "dmc": 14.881, "dc": 268.822, "isi": 3.867, "bui": 26.14, "fwi": 7.35, "fuel": "M2_50", "ros": 1.519, "sfc": 0.4996578, "tfc": 0.4996578, "bfc": 2.3268244, "hfi": 228, "cfb": 0, "age": 13, "pcuring": 24, "greenup": 1, "elev": 133, "ecozone": "7", "sfl": 0.56766754, "cfl": 0.22877976, "frp": 2.84, "estarea": null, "pconif": 50}}, {"type": "Feature", "id": "hotspots_last24hrs.30602992", "geometry": {"type": "Point", "coordinates": [-63.33391953, 45.24182129]}, "geometry_name": "geometry", "properties": {"lat": 45.24182, "lon": -63.33392, "rep_date": "2026-08-05T07:07:00Z", "source": "NASA_w", "sensor": "VIIRS-I", "satellite": "NOAA-20", "agency": "NS", "temp": 28.89, "rh": 43, "ws": 12.81, "wd": 82, "pcp": 0, "ffmc": 88.979, "dmc": 10.796, "dc": 205.841, "isi": 7.062, "bui": 19.09, "fwi": 10.39, "fuel": "O1b", "ros": 0.158, "sfc": 0.8409718, "tfc": 0.8409718, "bfc": 0.8409718, "hfi": 40, "cfb": 0, "age": 2, "pcuring": 39, "greenup": 0, "elev": 48, "ecozone": "7", "sfl": 1.09, "cfl": 0.13853753, "frp": 0.26, "estarea": null, "pconif": 0}}], "totalFeatures": 2, "numberMatched": 2, "numberReturned": 2, "timeStamp": "2026-08-05T10:05:21.677Z", "crs": {"type": "name", "properties": {"name": "urn:ogc:def:crs:EPSG::4326"}}, "archived_at": "2026-08-05 07:05:06 ADT"}
